[{"OBJECT_NAME":"STARLINK-36787","OBJECT_ID":"2026-042AB","EPOCH":"2026-03-10T18:00:01.999296","MEAN_MOTION":16.01577449,"ECCENTRICITY":9.7e-5,"INCLINATION":53.1596,"RA_OF_ASC_NODE":189.7673,"ARG_OF_PERICENTER":48.8393,"MEAN_ANOMALY":45.3918,"EPHEMERIS_TYPE":0,"CLASSIFICATION_TYPE":"U","NORAD_CAT_ID":68094,"ELEMENT_SET_NO":999,"REV_AT_EPOCH":221,"BSTAR":-0.0021087,"MEAN_MOTION_DOT":-0.01212191,"MEAN_MOTION_DDOT":0.00047905},{"OBJECT_NAME":"STARLINK-36790","OBJECT_ID":"2026-042AC","EPOCH":"2026-03-10T18:00:01.999296","MEAN_MOTION":16.01139966,"ECCENTRICITY":8.89e-5,"INCLINATION":53.16,"RA_OF_ASC_NODE":189.7841,"ARG_OF_PERICENTER":74.287,"MEAN_ANOMALY":11.9952,"EPHEMERIS_TYPE":0,"CLASSIFICATION_TYPE":"U","NORAD_CAT_ID":68095,"ELEMENT_SET_NO":999,"REV_AT_EPOCH":221,"BSTAR":-0.0021513,"MEAN_MOTION_DOT":-0.01205635,"MEAN_MOTION_DDOT":0.00047207},{"OBJECT_NAME":"STARLINK-36328","OBJECT_ID":"2026-042AD","EPOCH":"2026-03-10T18:00:01.999296","MEAN_MOTION":16.01688304,"ECCENTRICITY":0.0001096,"INCLINATION":53.1599,"RA_OF_ASC_NODE":189.7628,"ARG_OF_PERICENTER":40.0369,"MEAN_ANOMALY":56.2673,"EPHEMERIS_TYPE":0,"CLASSIFICATION_TYPE":"U","NORAD_CAT_ID":68096,"ELEMENT_SET_NO":999,"REV_AT_EPOCH":221,"BSTAR":-0.0020083,"MEAN_MOTION_DOT":-0.01162574,"MEAN_MOTION_DDOT":0.00044455},{"OBJECT_NAME":"STARLINK-36853","OBJECT_ID":"2026-042AE","EPOCH":"2026-03-10T18:00:01.999296","MEAN_MOTION":16.01478689,"ECCENTRICITY":9.03e-5,"INCLINATION":53.1598,"RA_OF_ASC_NODE":189.7711,"ARG_OF_PERICENTER":58.252,"MEAN_ANOMALY":34.1102,"EPHEMERIS_TYPE":0,"CLASSIFICATION_TYPE":"U","NORAD_CAT_ID":68097,"ELEMENT_SET_NO":999,"REV_AT_EPOCH":222,"BSTAR":-0.0021876,"MEAN_MOTION_DOT":-0.01249808,"MEAN_MOTION_DDOT":0.00050589},{"OBJECT_NAME":"GLOBAL-34","OBJECT_ID":"2026-043A","EPOCH":"2026-03-10T17:07:46.861248","MEAN_MOTION":15.31527863,"ECCENTRICITY":0.000674,"INCLINATION":42.0218,"RA_OF_ASC_NODE":69.5878,"ARG_OF_PERICENTER":295.8316,"MEAN_ANOMALY":64.1826,"EPHEMERIS_TYPE":0,"CLASSIFICATION_TYPE":"U","NORAD_CAT_ID":68098,"ELEMENT_SET_NO":999,"REV_AT_EPOCH":72,"BSTAR":0.00049218,"MEAN_MOTION_DOT":0.00015097,"MEAN_MOTION_DDOT":0},{"OBJECT_NAME":"ELECTRON R/B","OBJECT_ID":"2026-043B","EPOCH":"2026-03-10T08:29:35.060928","MEAN_MOTION":16.01670709,"ECCENTRICITY":0.0149943,"INCLINATION":42.0131,"RA_OF_ASC_NODE":69.346,"ARG_OF_PERICENTER":297.4494,"MEAN_ANOMALY":61.119,"EPHEMERIS_TYPE":0,"CLASSIFICATION_TYPE":"U","NORAD_CAT_ID":68099,"ELEMENT_SET_NO":999,"REV_AT_EPOCH":69,"BSTAR":0.0013482,"MEAN_MOTION_DOT":0.03474071,"MEAN_MOTION_DDOT":7.8117e-6},{"OBJECT_NAME":"ELECTRON KICK STAGE R/B","OBJECT_ID":"2026-043C","EPOCH":"2026-03-10T01:02:03.413184","MEAN_MOTION":16.00095135,"ECCENTRICITY":0.01383578,"INCLINATION":42.1191,"RA_OF_ASC_NODE":71.489,"ARG_OF_PERICENTER":51.8651,"MEAN_ANOMALY":309.4591,"EPHEMERIS_TYPE":0,"CLASSIFICATION_TYPE":"U","NORAD_CAT_ID":68100,"ELEMENT_SET_NO":999,"REV_AT_EPOCH":63,"BSTAR":0.0019249383,"MEAN_MOTION_DOT":0.03379654,"MEAN_MOTION_DDOT":8.197496e-6},{"OBJECT_NAME":"ECHOSTAR 25","OBJECT_ID":"2026-045A","EPOCH":"2026-03-10T08:18:42.478272","MEAN_MOTION":3.7443503,"ECCENTRICITY":0.6208313,"INCLINATION":26.8942,"RA_OF_ASC_NODE":71.1091,"ARG_OF_PERICENTER":174.1557,"MEAN_ANOMALY":199.6094,"EPHEMERIS_TYPE":0,"CLASSIFICATION_TYPE":"U","NORAD_CAT_ID":68126,"ELEMENT_SET_NO":999,"REV_AT_EPOCH":1,"BSTAR":0.00028878,"MEAN_MOTION_DOT":1.692e-5,"MEAN_MOTION_DDOT":0}]
